OBJECT_NAME,OBJECT_ID,EPOCH,MEAN_MOTION,ECCENTRICITY,INCLINATION,RA_OF_ASC_NODE,ARG_OF_PERICENTER,MEAN_ANOMALY,EPHEMERIS_TYPE,CLASSIFICATION_TYPE,NORAD_CAT_ID,ELEMENT_SET_NO,REV_AT_EPOCH,BSTAR,MEAN_MOTION_DOT,MEAN_MOTION_DDOT
QIANFAN-147,2026-108C,2026-06-08T23:43:03.143712,14.11001569,.00218807,89.0113,23.1299,132.1322,228.1727,0,U,69106,999,318,-.11365915E+1,-.1904458E-1,0
QIANFAN-148,2026-108D,2026-06-09T01:14:30.024960,14.12348657,.0019139,89.0112,23.1204,132.9176,227.3620,0,U,69107,999,319,-.10959624E+1,-.1882782E-1,0
QIANFAN-149,2026-108E,2026-06-09T01:09:33.262560,14.12789051,.00191348,89.0115,23.1204,137.6686,222.5980,0,U,69108,999,319,-.10875383E+1,-.1883434E-1,0
QIANFAN-150,2026-108F,2026-06-09T00:57:05.961312,14.14016203,.00161048,89.0117,23.1200,143.1246,217.1052,0,U,69109,999,319,-.1133986E+1,-.1998996E-1,0
QIANFAN-151,2026-108G,2026-06-08T21:23:51.773280,14.14300885,.00174678,89.0115,23.1340,144.7220,215.5127,0,U,69110,999,317,-.10496162E+1,-.1869518E-1,0
QIANFAN-152,2026-108H,2026-06-09T00:39:27.360000,14.15246250,.00142124,89.0108,23.1169,153.7104,206.4808,0,U,69111,999,319,-.10911366E+1,-.1969302E-1,0
QIANFAN-153,2026-108J,2026-06-09T00:30:48.162528,14.13890541,.00183315,89.0111,23.1159,150.0804,210.1435,0,U,69112,999,319,-.9309113E+0,-.1641978E-1,0
QIANFAN-154,2026-108K,2026-06-08T22:39:14.414976,14.15440524,.00148234,89.0116,23.1234,150.3978,209.8052,0,U,69113,999,318,-.10570609E+1,-.191852E-1,0
QIANFAN-155,2026-108L,2026-06-09T00:25:44.208192,14.14761041,.0016666,89.0115,23.1163,145.3037,214.9241,0,U,69114,999,319,-.1030009E+1,-.1851283E-1,0
QIANFAN-156,2026-108M,2026-06-09T00:12:01.327680,14.15992405,.00138621,89.0118,23.1154,152.4195,207.7732,0,U,69115,999,319,-.1016594E+1,-.18674E-1,0
QIANFAN-157,2026-108N,2026-06-08T23:32:16.666080,14.16574241,.00126736,89.0115,23.1106,148.5646,211.6303,0,U,69116,999,319,-.95411346E+0,-.1757925E-1,0
QIANFAN-158,2026-108P,2026-06-09T00:02:33.408384,14.17928176,.00165522,89.0116,23.1138,164.5951,195.5745,0,U,69117,999,319,-.10992851E+1,-.2077458E-1,0
QIANFAN-159,2026-108Q,2026-06-08T23:55:36.161184,14.18833186,.00160598,89.0112,23.1124,159.1762,201.0085,0,U,69118,999,319,-.10740728E+1,-.206519E-1,0
QIANFAN-160,2026-108R,2026-06-08T23:48:47.220480,14.18756166,.00121735,89.0126,23.1132,157.7843,202.3877,0,U,69119,999,319,-.10060423E+1,-.1939842E-1,0
QIANFAN-161,2026-108S,2026-06-08T23:43:25.235328,14.18859156,.00136875,89.0123,23.1119,160.7448,199.4262,0,U,69120,999,319,-.10330986E+1,-.1992239E-1,0
QIANFAN-162,2026-108T,2026-06-08T23:40:44.904576,14.19817573,.00172478,89.0114,23.1118,148.5171,211.7055,0,U,69121,999,319,-.10810882E+1,-.2113788E-1,0
SMILE,2026-109A,2026-05-24T15:40:35.120928,14.57062785,.00091232,70.0007,229.2745,259.5159,100.4951,0,U,69123,999,80,-.42378883E-3,-.1976E-4,0
STARLINK-37726,2026-110A,2026-06-09T12:00:02.998944,15.49137034,.0001568,97.2856,356.6480,90.5242,9.4677,0,U,69124,999,442,.15135E-2,.82948E-3,0
STARLINK-37722,2026-110B,2026-06-09T12:00:02.998944,15.49099685,.000165,97.2850,356.8086,66.6062,52.3942,0,U,69125,999,447,.19106E-2,.10489E-2,0
STARLINK-37715,2026-110C,2026-06-09T12:00:02.998944,15.58393232,.0001802,97.2846,356.8919,94.7193,210.4655,0,U,69126,999,442,-.36921E-1,-.2447383E-1,0
STARLINK-37706,2026-110D,2026-06-09T12:00:02.998944,15.58757156,.0001734,97.2845,356.8962,93.0295,221.3884,0,U,69127,999,442,-.36481E-1,-.2451256E-1,0
STARLINK-37723,2026-110E,2026-06-09T12:00:02.998944,15.59095953,.0001629,97.2849,356.9011,90.3102,234.2407,0,U,69128,999,442,-.35823E-1,-.2439852E-1,0
STARLINK-37720,2026-110F,2026-06-09T12:00:02.998944,15.49144182,.0001647,97.2864,356.6704,85.3935,63.5213,0,U,69129,999,442,.2058E-2,.113286E-2,0
STARLINK-37533,2026-110G,2026-06-09T12:00:02.998944,15.60175799,.0001548,97.2846,356.9126,88.1691,263.5401,0,U,69130,999,442,-.34872E-1,-.2470673E-1,0
STARLINK-37530,2026-110H,2026-06-09T12:00:02.998944,15.60524145,.0001491,97.2846,356.9173,83.8048,277.2362,0,U,69131,999,442,-.34266E-1,-.2461818E-1,0
STARLINK-37660,2026-110J,2026-06-09T12:00:02.998944,15.54086983,.0001888,97.2849,356.8440,72.9148,119.9861,0,U,69132,999,442,-.31341E-1,-.1804121E-1,0
STARLINK-37633,2026-110K,2026-06-09T12:00:02.998944,15.55564577,.0002455,97.2848,356.8560,85.4581,135.5088,0,U,69133,999,442,-.40838E-1,-.243683E-1,0
STARLINK-37361,2026-110L,2026-06-09T12:00:02.998944,15.61606430,.000141,97.2848,356.9280,72.9595,314.2263,0,U,69134,999,442,-.33252E-1,-.2487357E-1,0
STARLINK-37372,2026-110M,2026-06-09T12:00:02.998944,15.52839995,.0001398,97.2851,356.8710,130.7368,119.4127,0,U,69135,999,442,-.59015E-1,-.3208058E-1,0
